NORAD_CAT_ID,OBJECT_NAME,OBJECT_TYPE,EPOCH,MEAN_MOTION,ECCENTRICITY,INCLINATION,RA_OF_ASC_NODE,ARG_OF_PERICENTER,MEAN_ANOMALY,BSTAR,MEAN_MOTION_DOT,MEAN_MOTION_DDOT,TLE_LINE0,TLE_LINE1,TLE_LINE2,SEMIMAJOR_AXIS,PERIOD,APOGEE,PERIGEE,DECAYED
53718.0,STARLINK-4695,PAYLOAD,2024-01-27 13:20:06,15.0883541,0.0001351,53.2173,120.6302,88.8459,271.2688,7.7457e-06,-1.65e-06,0.0,0 STARLINK-4695,1 53718U 22107U   24027.55562897 -.00000165  00000-0  77457-5 0  9996,2 53718  53.2173 120.6302 0001351  88.8459 271.2688 15.08835410 77837,6917.894,95.438,540.694,538.825,0.0
53718.0,STARLINK-4695,PAYLOAD,2024-01-28 13:10:52,15.08850886,0.0001365,53.2172,116.1709,75.3145,284.7998,4.4191e-05,4.16e-06,0.0,0 STARLINK-4695,1 53718U 22107U   24028.54922037  .00000416  00000-0  44191-4 0  9998,2 53718  53.2172 116.1709 0001365  75.3145 284.7998 15.08850886 77988,6917.847,95.437,540.656,538.768,0.0
53718.0,STARLINK-4695,PAYLOAD,2024-01-28 14:46:15,15.08848097,0.0001436,53.2173,115.8698,84.215,275.9006,0.00013073,1.794e-05,0.0,0 STARLINK-4695,1 53718U 22107U   24028.61546001  .00001794  00000-0  13073-3 0  9993,2 53718  53.2173 115.8698 0001436  84.2150 275.9006 15.08848097 77541,6917.856,95.437,540.714,538.727,0.0
53718.0,STARLINK-4695,PAYLOAD,2024-01-29 11:26:16,15.08844551,0.0001911,53.2172,112.0098,65.1301,294.989,0.00024938,3.683e-05,0.0,0 STARLINK-4695,1 53718U 22107U   24029.47658479  .00003683  00000-0  24938-3 0  9992,2 53718  53.2172 112.0098 0001911  65.1301 294.9890 15.08844551 77674,6917.866,95.437,541.053,538.409,0.0
53718.0,STARLINK-4695,PAYLOAD,2024-01-30 11:17:04,15.08843678,0.0001754,53.2173,107.5497,65.1299,294.9876,-1.5505e-05,-5.35e-06,0.0,0 STARLINK-4695,1 53718U 22107U   24030.47018899 -.00000535  00000-0 -15505-4 0  9996,2 53718  53.2173 107.5497 0001754  65.1299 294.9876 15.08843678 77828,6917.869,95.437,540.948,538.521,0.0
53718.0,STARLINK-4695,PAYLOAD,2024-01-30 12:52:27,15.08841825,0.0001825,53.2176,107.2527,60.8028,299.3147,2.2271e-05,6.6e-07,0.0,0 STARLINK-4695,1 53718U 22107U   24030.53642908  .00000066  00000-0  22271-4 0  9992,2 53718  53.2176 107.2527 0001825  60.8028 299.3147 15.08841825 78286,6917.875,95.437,541.002,538.477,0.0
53718.0,STARLINK-4695,PAYLOAD,2024-01-31 11:07:50,15.08851893,0.0001926,53.2181,103.0872,62.8602,297.2586,5.2776e-05,5.52e-06,0.0,0 STARLINK-4695,1 53718U 22107U   24031.46377914  .00000552  00000-0  52776-4 0  9990,2 53718  53.2181 103.0872 0001926  62.8602 297.2586 15.08851893 77976,6917.844,95.437,541.041,538.377,0.0
53718.0,STARLINK-4695,PAYLOAD,2024-01-31 14:18:36,15.08846402,0.0001714,53.2184,102.487,85.8943,274.2245,0.00020687,3.006e-05,0.0,0 STARLINK-4695,1 53718U 22107U   24031.59625784  .00003006  00000-0  20687-3 0  9997,2 53718  53.2184 102.4870 0001714  85.8943 274.2245 15.08846402 78448,6917.861,95.437,540.912,538.54,0.0
53718.0,STARLINK-4695,PAYLOAD,2024-02-01 10:58:37,15.08838659,0.000152,53.2177,98.6152,109.1332,250.9824,2.5447e-05,1.17e-06,0.0,0 STARLINK-4695,1 53718U 22107U   24032.45738343  .00000117  00000-0  25447-4 0  9999,2 53718  53.2177  98.6152 0001520 109.1332 250.9824 15.08838659 78120,6917.884,95.438,540.801,538.698,0.0
53718.0,STARLINK-4695,PAYLOAD,2024-02-02 10:49:24,15.08846078,0.0001496,53.2175,94.1544,101.9539,258.1621,-6.2788e-05,-1.287e-05,0.0,0 STARLINK-4695,1 53718U 22107U   24033.45098313 -.00001287  00000-0 -62788-4 0  9996,2 53718  53.2175  94.1544 0001496 101.9539 258.1621 15.08846078 78720,6917.862,95.437,540.762,538.692,0.0
53718.0,STARLINK-4695,PAYLOAD,2024-02-03 02:43:16,15.08833861,0.0001575,53.2178,91.1924,104.1407,255.976,8.2657e-05,1.028e-05,0.0,0 STARLINK-4695,1 53718U 22107U   24034.11338868  .00001028  00000-0  82657-4 0  9990,2 53718  53.2178  91.1924 0001575 104.1407 255.9760 15.08833861 78375,6917.899,95.438,540.854,538.675,0.0
53718.0,STARLINK-4695,PAYLOAD,2024-02-03 10:40:12,15.08836756,0.0001614,53.2178,89.7056,104.2839,255.8333,0.0001157,1.554e-05,0.0,0 STARLINK-4695,1 53718U 22107U   24034.44458806  .00001554  00000-0  11570-3 0  9990,2 53718  53.2178  89.7056 0001614 104.2839 255.8333 15.08836756 78874,6917.89,95.438,540.872,538.639,0.0
53718.0,STARLINK-4695,PAYLOAD,2024-02-03 13:50:58,15.08839789,0.0001587,53.2175,89.1091,102.8837,257.2333,0.00013556,1.87e-05,0.0,0 STARLINK-4695,1 53718U 22107U   24034.57706597  .00001870  00000-0  13556-3 0  9994,2 53718  53.2175  89.1091 0001587 102.8837 257.2333 15.08839789 78892,6917.881,95.438,540.844,538.648,0.0
53718.0,STARLINK-4695,PAYLOAD,2024-02-04 12:06:22,15.08843953,0.0001653,53.2177,84.9453,97.9242,262.1938,0.00013226,1.818e-05,0.0,0 STARLINK-4695,1 53718U 22107U   24035.50442596  .00001818  00000-0  13226-3 0  9990,2 53718  53.2177  84.9453 0001653  97.9242 262.1938 15.08843953 79038,6917.868,95.437,540.877,538.59,0.0
53718.0,STARLINK-4695,PAYLOAD,2024-02-05 02:24:51,15.08840026,0.0001894,53.2192,82.2681,88.4958,271.6251,4.165e-05,3.75e-06,0.0,0 STARLINK-4695,1 53718U 22107U   24036.10059279  .00000375  00000-0  41650-4 0  9999,2 53718  53.2192  82.2681 0001894  88.4958 271.6251 15.08840026 78675,6917.88,95.438,541.056,538.435,0.0
53718.0,STARLINK-4695,PAYLOAD,2024-02-05 10:21:46,15.08842139,0.0001704,53.2182,80.7833,80.6514,279.4671,6.2565e-05,7.08e-06,0.0,0 STARLINK-4695,1 53718U 22107U   24036.43179086  .00000708  00000-0  62565-4 0  9992,2 53718  53.2182  80.7833 0001704  80.6514 279.4671 15.08842139 79173,6917.874,95.437,540.918,538.56,0.0
53718.0,STARLINK-4695,PAYLOAD,2024-02-06 11:47:56,15.08847149,0.0001616,53.2176,76.0248,87.3203,272.7974,0.00014825,2.073e-05,0.0,0 STARLINK-4695,1 53718U 22107U   24037.49162509  .00002073  00000-0  14825-3 0  9993,2 53718  53.2176  76.0248 0001616  87.3203 272.7974 15.08847149 78880,6917.859,95.437,540.841,538.606,0.0
53718.0,STARLINK-4695,PAYLOAD,2024-02-07 02:06:25,15.08841101,0.0001379,53.2164,73.3459,105.3243,254.7902,1.6047e-05,-3.3e-07,0.0,0 STARLINK-4695,1 53718U 22107U   24038.08779075 -.00000033  00000-0  16047-4 0  9995,2 53718  53.2164  73.3459 0001379 105.3243 254.7902 15.08841101 78975,6917.877,95.437,540.696,538.788,0.0
53718.0,STARLINK-4695,PAYLOAD,2024-02-07 08:27:57,15.08842598,0.0001548,53.2165,72.1589,84.4875,275.6293,6.5712e-05,7.58e-06,0.0,0 STARLINK-4695,1 53718U 22107U   24038.35274956  .00000758  00000-0  65712-4 0  9999,2 53718  53.2165  72.1589 0001548  84.4875 275.6293 15.08842598 79464,6917.872,95.437,540.808,538.667,0.0
53718.0,STARLINK-4695,PAYLOAD,2024-02-07 19:35:39,15.08842813,0.0001577,53.2176,70.0791,78.0899,282.0269,0.00010141,1.326e-05,0.0,0 STARLINK-4695,1 53718U 22107U   24038.81642943  .00001326  00000-0  10141-3 0  9992,2 53718  53.2176  70.0791 0001577  78.0899 282.0269 15.08842813 79538,6917.872,95.437,540.828,538.646,0.0
53718.0,STARLINK-4695,PAYLOAD,2024-02-08 08:18:44,15.0884525,0.0001684,53.2184,67.6994,103.2738,256.8442,2.0066e-05,3.1e-07,0.0,0 STARLINK-4695,1 53718U 22107U   24039.34634996  .00000031  00000-0  20066-4 0  9990,2 53718  53.2184  67.6994 0001684 103.2738 256.8442 15.08845250 79165,6917.864,95.437,540.894,538.564,0.0
53718.0,STARLINK-4695,PAYLOAD,2024-02-09 11:20:17,15.08844891,0.0001664,53.2177,62.6423,100.4503,259.6677,4.4635e-05,4.22e-06,0.0,0 STARLINK-4695,1 53718U 22107U   24040.47243024  .00000422  00000-0  44635-4 0  9996,2 53718  53.2177  62.6423 0001664 100.4503 259.6677 15.08844891 79336,6917.865,95.437,540.882,538.579,0.0
53718.0,STARLINK-4695,PAYLOAD,2024-02-10 01:38:47,15.08828718,0.0001614,53.218,59.9634,110.0289,250.0877,8.7336e-05,1.102e-05,0.0,0 STARLINK-4695,1 53718U 22107U   24041.06860055  .00001102  00000-0  87336-4 0  9992,2 53718  53.2180  59.9634 0001614 110.0289 250.0877 15.08828718 79423,6917.915,95.438,540.896,538.663,0.0
53718.0,STARLINK-4695,PAYLOAD,2024-02-10 06:24:56,15.08833821,0.0001535,53.2179,59.0712,100.5625,259.554,0.00012886,1.763e-05,0.0,0 STARLINK-4695,1 53718U 22107U   24041.26731835  .00001763  00000-0  12886-3 0  9997,2 53718  53.2179  59.0712 0001535 100.5625 259.5540 15.08833821 79904,6917.899,95.438,540.826,538.702,0.0
53718.0,STARLINK-4695,PAYLOAD,2024-02-11 01:29:33,15.08842101,0.0001623,53.2178,55.5014,98.2118,261.9058,3.2389e-05,2.27e-06,0.0,0 STARLINK-4695,1 53718U 22107U   24042.06219853  .00000227  00000-0  32389-4 0  9992,2 53718  53.2178  55.5014 0001623  98.2118 261.9058 15.08842101 79572,6917.874,95.437,540.862,538.616,0.0
53718.0,STARLINK-4695,PAYLOAD,2024-02-11 11:01:52,15.08846658,0.0001649,53.2179,53.7173,99.0827,261.0352,8.6957e-05,1.096e-05,0.0,0 STARLINK-4695,1 53718U 22107U   24042.45963364  .00001096  00000-0  86957-4 0  9993,2 53718  53.2179  53.7173 0001649  99.0827 261.0352 15.08846658 80080,6917.86,95.437,540.866,538.584,0.0
53718.0,STARLINK-4695,PAYLOAD,2024-02-12 09:17:16,15.08845827,0.0001797,53.2193,49.5581,93.7784,266.3413,0.00012054,1.631e-05,0.0,0 STARLINK-4695,1 53718U 22107U   24043.38699593  .00001631  00000-0  12054-3 0  9997,2 53718  53.2193  49.5581 0001797  93.7784 266.3413 15.08845827 79776,6917.863,95.437,540.971,538.484,0.0
53718.0,STARLINK-4695,PAYLOAD,2024-02-13 07:32:41,15.08838385,0.0001685,53.2193,45.391,87.7077,272.4108,1.6723e-05,-2.2e-07,0.0,0 STARLINK-4695,1 53718U 22107U   24044.31436563 -.00000022  00000-0  16723-4 0  9999,2 53718  53.2193  45.3910 0001685  87.7077 272.4108 15.08838385 79916,6917.885,95.438,540.916,538.585,0.0
53718.0,STARLINK-4695,PAYLOAD,2024-02-13 17:05:00,15.08837372,0.0001725,53.219,43.6088,109.2792,250.8387,4.6583e-05,4.53e-06,0.0,0 STARLINK-4695,1 53718U 22107U   24044.71180598  .00000453  00000-0  46583-4 0  9991,2 53718  53.2190  43.6088 0001725 109.2792 250.8387 15.08837372 80421,6917.888,95.438,540.947,538.56,0.0
53718.0,STARLINK-4695,PAYLOAD,2024-02-14 07:23:27,15.0884996,0.0001544,53.2183,40.934,96.5118,263.605,0.00019825,2.869e-05,0.0,0 STARLINK-4695,1 53718U 22107U   24045.30795740  .00002869  00000-0  19825-3 0  9999,2 53718  53.2183  40.9340 0001544  96.5118 263.6050 15.08849960 80068,6917.85,95.437,540.783,538.647,0.0
